{
  "type": "FeatureCollection",
  "features": [
    {
      "type": "Feature",
      "properties": {
        "name": "Example CTR",
        "class": "D",
        "lower": "SFC",
        "upper": "2500 FT",
        "source": "SmartyMap example data"
      },
      "geometry": {
        "type": "Polygon",
        "coordinates": [
          [
            [
              -1.7,
              54.45
            ],
            [
              -1.3,
              54.45
            ],
            [
              -1.2,
              54.6
            ],
            [
              -1.3,
              54.75
            ],
            [
              -1.7,
              54.75
            ],
            [
              -1.8,
              54.6
            ],
            [
              -1.7,
              54.45
            ]
          ]
        ]
      }
    }
  ]
}
